OUFTI-1                 
1 41458U 16025C   21045.78595041  .00002512  00000-0  12484-3 0  9999
2 41458  98.1244 175.6860 0161462 113.2468 248.5851 15.07980584263988
E-ST@R-II               
1 41459U 16025D   21046.04021432  .00001904  00000-0  96523-4 0  9999
2 41459  98.1223 175.1505 0163296 115.0447 246.7852 15.07453266263973
AAUSAT 4                
1 41460U 16025E   21046.10778047  .00002691  00000-0  12953-3 0  9997
2 41460  98.1206 178.5105 0150780 100.4941 261.3376 15.10238165264248
AIST-2D (RS-48)         
1 41465U 16026B   21046.19282065  .00001478  00000-0  44748-4 0  9992
2 41465  97.1248 294.4014 0012982  94.0243  62.7784 15.35651117268668
SAMSAT-218D             
1 41466U 16026C   21046.03417515  .00010129  00000-0  17462-3 0  9991
2 41466  97.1670 314.6205 0006721  43.3994  69.1251 15.51211299269830
NUSAT-1 (FRESCO)        
1 41557U 16033B   21046.16195459  .00001282  00000-0  48313-4 0  9994
2 41557  97.3953 140.8510 0011798 313.7805 137.6821 15.28875499262840
NUSAT-2 (BATATA)        
1 41558U 16033C   21046.19300343  .00001483  00000-0  52114-4 0  9995
2 41558  97.4041 144.1545 0010651 308.1792 110.5798 15.30953168263011
CARTOSAT-2C             
1 41599U 16040A   21046.21147784  .00000473  00000-0  25599-4 0  9994
2 41599  97.4179 107.9069 0015727  86.1211 346.6095 15.19277553257956
SATHYABAMASAT           
1 41600U 16040B   21046.10265909  .00001589  00000-0  65363-4 0  9997
2 41600  97.2903 106.4907 0014459  55.5133 304.7469 15.25503471258499
LAPAN-A3                
1 41603U 16040E   21046.07322704  .00000020  00000-0  39972-5 0  9990
2 41603  97.2764  97.5274 0015079  74.5340 345.5938 15.19958670257990
BIROS                   
1 41604U 16040F   21045.88917924  .00000459  00000-0  22806-4 0  9996
2 41604  97.2815 102.3051 0013571  57.2437 303.0105 15.22365627258259
SWAYAM                  
1 41607U 16040J   21045.64220774  .00001612  00000-0  66858-4 0  9990
2 41607  97.2859 104.9713 0014111  57.2660 302.9936 15.25197652258324
BEESAT-4                
1 41619U 16040W   21045.57928727  .00001511  00000-0  63457-4 0  9998
2 41619  97.2877 105.0454 0012034  52.0742 308.1582 15.24906985246280
3CAT-2                  
1 41732U 16051B   21045.72053544  .00001205  00000-0  46223-4 0  9991
2 41732  97.3768 327.0968 0011736 217.5634 208.2895 15.28390357250756
PRATHAM                 
1 41783U 16059A   21045.91404511  .00000045  00000-0  17936-4 0  9990
2 41783  97.9833 100.1050 0032181 272.3407  87.4111 14.63111766234334
ALSAT 1N                
1 41789U 16059G   21046.19964188  .00000085  00000-0  24985-4 0  9994
2 41789  97.9874 103.7785 0027009 256.7968 103.0237 14.64388110234558
LISHUI 1-01             
1 41845U 16066E   21046.02471503  .00004829  00000-0  61722-3 0  9990
2 41845  98.7307 143.1058 0281292 137.2226 225.1273 14.57825553225553
CARTOSAT-2D             
1 41948U 17008A   21046.10038657  .00000253  00000-0  15226-4 0  9995
2 41948  97.4600 108.0916 0006537 217.0242 143.0559 15.19259272221801
NAYIF-1 (EO-88)         
1 42017U 17008BX  21045.62997973  .00001744  00000-0  67519-4 0  9992
2 42017  97.3314 115.3937 0006290 169.4284 190.7088 15.27494594222507
ZHUHAI-1 02 (CAS-4B)    
1 42759U 17034B   21046.12781343  .00000051  00000-0  16440-4 0  9999
2 42759  43.0169 133.5176 0008031 118.2578 315.2010 15.10068060202656
ZHUHAI-1 01 (CAS-4A)    
1 42761U 17034D   21046.12548840  .00000055  00000-0  16682-4 0  9997
2 42761  43.0174 132.6659 0008384 119.2949 314.2335 15.10148928202656
UCLSAT                  
1 42765U 17036A   21045.59244363  .00001334  00000-0  57343-4 0  9996
2 42765  97.2683  98.9580 0009443 248.4556 111.5676 15.24319196202860
NIUSAT                  
1 42766U 17036B   21045.94079467  .00000871  00000-0  40671-4 0  9998
2 42766  97.2684  96.0793 0013670 244.3037 115.6788 15.22321715202578
CARTOSAT-2E             
1 42767U 17036C   21045.91370810  .00000433  00000-0  23721-4 0  9993
2 42767  97.3904 105.9359 0007409 278.5858  81.4537 15.19296256202340
LITUANICASAT-2          
1 42768U 17036D   21045.90694173  .00002099  00000-0  85806-4 0  9996
2 42768  97.2749  99.7142 0012783 235.1268 124.8769 15.25381633202780
AALTO-1                 
1 42775U 17036L   21046.10941679  .00000729  00000-0  34502-4 0  9998
2 42775  97.2658  96.5428 0012139 242.5025 117.4979 15.22339311202589
URSA MAIOR              
1 42776U 17036M   21046.13182395  .00000792  00000-0  37005-4 0  9995
2 42776  97.2671  96.9633 0011946 241.7028 118.3004 15.22573990202601
COMPASS 2               
1 42777U 17036N   21045.57654600  .00001755  00000-0  73115-4 0  9998
2 42777  97.2737  99.6757 0010478 237.7072 122.3152 15.24970840202689
MAX VALIER SAT          
1 42778U 17036P   21046.13145801  .00000785  00000-0  36058-4 0  9997
2 42778  97.2732  98.6634 0010517 243.6120 116.4038 15.23208228202660
PEGASUS                 
1 42784U 17036V   21046.13060828  .00001062  00000-0  46732-4 0  9998
2 42784  97.2689  99.0652 0010044 248.1022 111.9148 15.23940812202720
NUDTSAT                 
1 42787U 17036Y   21045.95421146  .00002351  00000-0  95192-4 0  9990
2 42787  97.2746 100.9194 0009056 248.5788 111.4479 15.25626516202652
SUCHAI                  
1 42788U 17036Z   21046.12355362  .00001295  00000-0  55233-4 0  9995
2 42788  97.2699  99.8959 0009592 244.9541 115.0702 15.24630030202842
SKCUBE                  
1 42789U 17036AA  21045.93634395  .00001195  00000-0  51516-4 0  9999
2 42789  97.2692  99.4815 0009469 246.3371 113.6874 15.24410172202727
VZLUSAT-1               
1 42790U 17036AB  21045.61858951  .00001884  00000-0  76888-4 0  9996
2 42790  97.2724 100.5810 0008947 242.9598 117.0728 15.25594692202757
ROBUSTA-1B              
1 42792U 17036AD  21045.59543304  .00001409  00000-0  59891-4 0  9996
2 42792  97.2697  99.4836 0009041 247.7692 112.2587 15.24628565202707
D-SAT                   
1 42794U 17036AF  21046.05763283  .00000151  00000-0  18594-4 0  9998
2 42794  97.4724  72.3869 0124202 274.9776  83.7275 14.91451850198849
NORSAT 2                
1 42828U 17042D   21045.88842409  .00000248  00000-0  29826-4 0  9998
2 42828  97.4957 282.9919 0013900 188.9916 171.1056 14.91726951195463
TECHNOSAT               
1 42829U 17042E   21045.93089861  .00000277  00000-0  33133-4 0  9998
2 42829  97.4878 281.8361 0013782 190.3379 169.7559 14.91217353195421
2017-042F               
1 42830U 17042F   21045.87397134  .00000843  00000-0  86912-4 0  9990
2 42830  97.4986 283.9560 0013747 183.6963 176.4158 14.92631072195511
FLYING LAPTOP           
1 42831U 17042G   21045.97270637 -.00000448  00000-0 -39725-4 0  9993
2 42831  97.4889 282.0665 0013644 190.2860 169.8086 14.91235590195437
CORVUS BC2              
1 42846U 17042X   21045.58976966  .00000244  00000-0  29051-4 0  9997
2 42846  97.4917 283.7558 0009421 180.2387 179.8830 14.92226872195516
CORVUS BC1              
1 42847U 17042Y   21046.10536583 -.00000053  00000-0  38262-8 0  9991
2 42847  97.4919 284.4610 0009148 177.1302 182.9971 14.92329167195594
SIMPL                   
1 42983U 98067NF  21046.04134517  .00005663  00000-0  63047-4 0  9998
2 42983  51.6374 160.3369 0003084 248.4893 111.5774 15.64566146188226
CZ-4C R/B               
1 43012U 17072C   21045.76751417  .00000066  00000-0  25266-4 0  9994
2 43012  98.7329  54.7034 0127669   8.1100 352.2120 14.56142810172887
RADFXSAT (FOX-1B)       
1 43017U 17073E   21046.18563542  .00000818  00000-0  68784-4 0  9994
2 43017  97.7160 314.9768 0255350 339.5298  19.5822 14.79315381175040
EAGLESAT 1              
1 43018U 17073F   21045.55805465  .00001458  00000-0  11630-3 0  9996
2 43018  97.7164 315.0731 0252520 338.8454  20.2458 14.80224908174868
ECAMSAT                 
1 43019U 98067NG  21045.80857219  .00016073  00000-0  12006-3 0  9998
2 43019  51.6408 136.3665 0002873 255.0248 105.0433 15.72895071270841
INS-1C                  
1 43116U 18004F   21046.13687886  .00001173  00000-0  50411-4 0  9995
2 43116  97.4265 121.7403 0007557 272.4893  87.5479 15.24640744172004
FLOCK 3P'-3             
1 43119U 18004J   21045.50922106  .00000816  00000-0  36698-4 0  9999
2 43119  97.4255 120.1850 0008331 284.0839  75.9472 15.23914139171852
FLOCK 3P'-2             
1 43120U 18004K   21046.18305279  .00000567  00000-0  26631-4 0  9991
2 43120  97.4259 120.6950 0008337 281.7288  78.3014 15.23640423171943
FLOCK 3P'-1             
1 43121U 18004L   21045.65069231  .00002973  00000-0  11829-3 0  9993
2 43121  97.4257 121.5203 0007665 278.5757  81.4613 15.26033956171884
FLOCK 3P'-4             
1 43122U 18004M   21046.18066875  .00000656  00000-0  30331-4 0  9990
2 43122  97.4268 120.7795 0008191 284.4044  75.6283 15.23661673171949
MICROMAS-2A             
1 43131U 18004W   21046.16835518  .00001966  00000-0  78102-4 0  9999
2 43131  97.4231 122.8804 0007046 275.1277  84.9157 15.26503313172107
PICSAT                  
1 43132U 18004X   21045.92983675  .00001360  00000-0  56896-4 0  9995
2 43132  97.4216 121.5526 0007641 281.8668  78.1713 15.25300215172004
CNUSAIL-1               
1 43133U 18004Y   21046.14466380  .00000937  00000-0  41093-4 0  9992
2 43133  97.4195 120.9890 0007743 283.4140  76.6235 15.24441269171986
2018-004Z               
1 43134U 18004Z   21046.14731397  .00001173  00000-0  49924-4 0  9990
2 43134  97.4208 121.5358 0007504 282.3695  77.6702 15.24963071172011
FOX-1D (AO-92)          
1 43137U 18004AC  21045.63464123  .00001085  00000-0  46614-4 0  9991
2 43137  97.4197 120.8866 0007322 286.6369  73.4065 15.24800292171942
STEP CUBE LAB           
1 43138U 18004AD  21046.19730546  .00001693  00000-0  68254-4 0  9998
2 43138  97.4232 122.8250 0006970 280.5126  79.5327 15.26209472172106
XIAOXIANG-2             
1 43155U 18008A   21046.18150900  .00001089  00000-0  66662-4 0  9990
2 43155  97.4197 114.7558 0018098  36.6215  40.3937 15.12122523169597
